{
  "norad_id": 66370,
  "name": "STARLINK-35824",
  "history": [
    {
      "epoch": "2026-03-28T20:53:37.825152",
      "apogee_km": 476.0581159979465,
      "perigee_km": 474.2929768184931,
      "latitude_deg": -50.411757558338316,
      "longitude_deg": -179.42463871999644,
      "semi_major_axis_km": 6853.3125464082195,
      "eccentricity": 0.00012878,
      "inclination_deg": 53.1604,
      "raan_deg": 141.0942,
      "arg_perigee_deg": 80.9619,
      "mean_anomaly_deg": 279.1528,
      "mean_motion_rev_day": 15.30213237
    }
  ]
}