{"fetched_at":"2026-03-29T16:36:15Z","count":15609,"tles":[{"name":"STARLINK-35824","line1":"1 66370U 25254Y   26087.87057668  .00018374  00000+0  63069-3 0  9999","line2":"2 66370  53.1604 141.0942 0001287  80.9619 279.1528 15.30213237 21942","category":"Starlink"}]}